{
  "norad_id": 65512,
  "name": "STARLINK-35149",
  "history": [
    {
      "epoch": "2026-03-28T14:58:45.988032",
      "apogee_km": 475.9106241510517,
      "perigee_km": 474.4436037318228,
      "latitude_deg": 32.557074908361244,
      "longitude_deg": 71.11776448017918,
      "semi_major_axis_km": 6853.314113941437,
      "eccentricity": 0.00010703,
      "inclination_deg": 53.1584,
      "raan_deg": 182.7179,
      "arg_perigee_deg": 66.9744,
      "mean_anomaly_deg": 293.1369,
      "mean_motion_rev_day": 15.30212712
    }
  ]
}