{"fetched_at":"2026-03-29T16:36:15Z","count":15609,"tles":[{"name":"STARLINK-35149","line1":"1 65512U 25198W   26087.62414338  .00022778  00000+0  77853-3 0  9996","line2":"2 65512  53.1584 182.7179 0001070  66.9744 293.1369 15.30212712 31524","category":"Starlink"}]}